[{"OBJECT_NAME":"VSP ROSE","OBJECT_ID":"2024-043AC","EPOCH":"2026-03-09T21:48:06.922944","MEAN_MOTION":15.27746075,"ECCENTRICITY":0.00099339,"INCLINATION":97.5443,"RA_OF_ASC_NODE":203.927,"ARG_OF_PERICENTER":232.2702,"MEAN_ANOMALY":127.7637,"EPHEMERIS_TYPE":0,"CLASSIFICATION_TYPE":"U","NORAD_CAT_ID":59124,"ELEMENT_SET_NO":999,"REV_AT_EPOCH":11182,"BSTAR":0.00025731354,"MEAN_MOTION_DOT":6.907e-5,"MEAN_MOTION_DDOT":0},{"OBJECT_NAME":"STARLINK-36085","OBJECT_ID":"2025-294F","EPOCH":"2026-03-09T22:34:48.742752","MEAN_MOTION":15.27594472,"ECCENTRICITY":0.00014126,"INCLINATION":43.0019,"RA_OF_ASC_NODE":36.9951,"ARG_OF_PERICENTER":245.2775,"MEAN_ANOMALY":114.793,"EPHEMERIS_TYPE":0,"CLASSIFICATION_TYPE":"U","NORAD_CAT_ID":67035,"ELEMENT_SET_NO":999,"REV_AT_EPOCH":1483,"BSTAR":0.0015273275,"MEAN_MOTION_DOT":0.00042025,"MEAN_MOTION_DDOT":0}]
